[{"OBJECT_NAME":"STARLINK-30967","OBJECT_ID":"2023-180Q","EPOCH":"2026-03-09T22:28:24.978144","MEAN_MOTION":15.27595324,"ECCENTRICITY":0.00027232,"INCLINATION":43.0036,"RA_OF_ASC_NODE":51.1487,"ARG_OF_PERICENTER":303.7372,"MEAN_ANOMALY":56.322,"EPHEMERIS_TYPE":0,"CLASSIFICATION_TYPE":"U","NORAD_CAT_ID":58416,"ELEMENT_SET_NO":999,"REV_AT_EPOCH":12766,"BSTAR":0.00061815684,"MEAN_MOTION_DOT":0.00016796,"MEAN_MOTION_DDOT":0},{"OBJECT_NAME":"MESON-1","OBJECT_ID":"2024-043AK","EPOCH":"2026-03-09T21:36:16.481664","MEAN_MOTION":15.29893494,"ECCENTRICITY":0.00095452,"INCLINATION":97.5469,"RA_OF_ASC_NODE":205.2839,"ARG_OF_PERICENTER":227.1432,"MEAN_ANOMALY":132.9007,"EPHEMERIS_TYPE":0,"CLASSIFICATION_TYPE":"U","NORAD_CAT_ID":59131,"ELEMENT_SET_NO":999,"REV_AT_EPOCH":11189,"BSTAR":0.0002974823,"MEAN_MOTION_DOT":8.544e-5,"MEAN_MOTION_DDOT":0}]
