STARLINK-30967          
1 58416U 23180Q   26068.93640021  .00016796  00000+0  61816-3 0  9998
2 58416  43.0036  51.1487 0002723 303.7372  56.3220 15.27595324127660
MESON-1                 
1 59131U 24043AK  26068.90019075  .00008544  00000+0  29748-3 0  9998
2 59131  97.5469 205.2839 0009545 227.1432 132.9007 15.29893494111890
